[{"OBJECT_NAME":"STARLINK-5455","OBJECT_ID":"2023-021AS","EPOCH":"2026-03-09T16:38:53.876832","MEAN_MOTION":14.98332438,"ECCENTRICITY":0.000339,"INCLINATION":70.0008,"RA_OF_ASC_NODE":164.5072,"ARG_OF_PERICENTER":273.9527,"MEAN_ANOMALY":86.1245,"EPHEMERIS_TYPE":0,"CLASSIFICATION_TYPE":"U","NORAD_CAT_ID":55668,"ELEMENT_SET_NO":999,"REV_AT_EPOCH":16927,"BSTAR":-4.2750884e-5,"MEAN_MOTION_DOT":-6.03e-6,"MEAN_MOTION_DDOT":0},{"OBJECT_NAME":"ICEYE-X40","OBJECT_ID":"2024-149CK","EPOCH":"2026-03-09T18:13:16.348800","MEAN_MOTION":14.97556326,"ECCENTRICITY":0.00059832,"INCLINATION":97.6865,"RA_OF_ASC_NODE":146.8579,"ARG_OF_PERICENTER":65.2061,"MEAN_ANOMALY":294.9783,"EPHEMERIS_TYPE":0,"CLASSIFICATION_TYPE":"U","NORAD_CAT_ID":60549,"ELEMENT_SET_NO":999,"REV_AT_EPOCH":8519,"BSTAR":0.00028351559,"MEAN_MOTION_DOT":3.253e-5,"MEAN_MOTION_DDOT":0}]
