STARLINK-5455           
1 55668U 23021AS  26068.69367912 -.00000603  00000+0 -42751-4 0  9996
2 55668  70.0008 164.5072 0003390 273.9527  86.1245 14.98332438169278
ICEYE-X40               
1 60549U 24149CK  26068.75921699  .00003253  00000+0  28352-3 0  9999
2 60549  97.6865 146.8579 0005983  65.2061 294.9783 14.97556326 85195
